{
    "CCSDS_OMM_VERS": "3.0",
    "COMMENT": "GENERATED VIA SPACE-TRACK.ORG API",
    "CREATION_DATE": "2025-05-20T18:25:46",
    "ORIGINATOR": "18 SPCS",
    "OBJECT_NAME": "BEIDOU 3M16",
    "OBJECT_ID": "2018-078B",
    "CENTER_NAME": "EARTH",
    "REF_FRAME": "TEME",
    "TIME_SYSTEM": "UTC",
    "MEAN_ELEMENT_THEORY": "SGP4",
    "EPOCH": "2025-05-19T13:34:51.896352",
    "MEAN_MOTION": "1.86232254",
    "ECCENTRICITY": "0.00046400",
    "INCLINATION": "54.4402",
    "RA_OF_ASC_NODE": "313.7527",
    "ARG_OF_PERICENTER": "45.5260",
    "MEAN_ANOMALY": "314.5096",
    "EPHEMERIS_TYPE": "0",
    "CLASSIFICATION_TYPE": "U",
    "NORAD_CAT_ID": "43648",
    "ELEMENT_SET_NO": "999",
    "REV_AT_EPOCH": "4484",
    "BSTAR": "0.00000000000000",
    "MEAN_MOTION_DOT": "-0.00000042",
    "MEAN_MOTION_DDOT": "0.0000000000000",
    "SEMIMAJOR_AXIS": "27906.063",
    "PERIOD": "773.228",
    "APOAPSIS": "21540.877",
    "PERIAPSIS": "21514.980",
    "OBJECT_TYPE": "PAYLOAD",
    "RCS_SIZE": "LARGE",
    "COUNTRY_CODE": "PRC",
    "LAUNCH_DATE": "2018-10-15",
    "SITE": "XSC",
    "DECAY_DATE": null,
    "FILE": "4734167",
    "GP_ID": "288007773",
    "TLE_LINE0": "0 BEIDOU 3M16",
    "TLE_LINE1": "1 43648U 18078B   25139.56587843 -.00000042  00000-0  00000-0 0  9992",
    "TLE_LINE2": "2 43648  54.4402 313.7527 0004640  45.5260 314.5096  1.86232254 44841"
}